#dP2020  5 22  0  0  0.00000000      96 __u+U ITR00 FIT  IAC
## 2106 432000.00000000   900.00000000 58991 0.0000000000000
+  118   C01C02C03C04C05C06C07C08C09C10C11C12C13C14C16C19C20
+        C21C22C23C24C25C26C27C28C29C30C32C33C34C35C36C37C44
+        C45E01E02E03E04E05E07E08E09E11E12E13E14E15E18E19E21
+        E24E25E26E27E30E31E33E36G01G02G03G04G05G06G07G08G09
+        G10G11G12G13G14G15G16G17G18G19G20G21G22G23G24G25G26
+        G27G28G29G30G31G32J01J02J03J07R01R02R03R04R05R07R08
+        R09R11R12R13R14R15R16R17R18R19R20R21R22R23R24R26  0
++        13 13 13 13 13  8  8  8  8  8  8  8  8  8  8  7  7
++         8  8  7  8  8  8  7  7  8  8  8  8  8  8  8  8  0
++         9  5  5  5  5  4  4  5  4  4  5  4  5  4  4  4  4
++         5  4  5  4  5  5  5  4  4  3  3  3  3  3  3  4  3
++         3  4  3  3  3  3  3  4  3  4  3  3  0  4  4  3  3
++         3  4  3  3  4  3  8  8  8 15  6  6  6  6  5  6  6
++         5  6  6  6  5  5  6  6  5  8  8  5  5  5  5  9  0
%c M  cc GPS ccc cccc cccc cccc cccc ccccc ccccc ccccc ccccc
%c cc cc ccc ccc cccc cccc cccc cccc ccccc ccccc ccccc ccccc
%f  0.0000000  0.000000000  0.00000000000  0.000000000000000
%f  0.0000000  0.000000000  0.00000000000  0.000000000000000
%i    0    0    0    0      0      0      0      0         0
%i    0    0    0    0      0      0      0      0         0
/* INFORMATION & ANALYSIS CENTER (IAC)            RAPID DATA
/* S/V CLOCKS ARE ALIGNED TO GNSS TIME                      
/* G:C1WC2W R:C1PC2P E:C1XC5X C:C2IC6I J:C1CC2S             
/* PCV:IGS14_2101 OL/AL:FES2004  NONE     YN ORB:CoN CLK:CoN
*  2020 05 22 16  0  0.00000000
PC01 -34357.856184  24414.835057   -411.661285   -489.595890
PC02   4376.224484  41929.193473   1163.762342    333.471611
PC03 -14843.698576  39500.031189    204.224609    791.319455
PC04 -39624.679463  14424.222485   -487.831049   -205.831238
PC05  21891.880836  36048.950293    953.396124   -325.894107
PC06  -7625.028791  30448.240820  28754.054570    736.864262
PC07 -21761.704602  22974.822968 -27895.952422    -53.418069
PC08 -21168.283535  36251.137013   1130.098906   -267.086829
PC09   5189.663712  38832.508398  16360.899985    558.102958
PC10  -4444.129593  26107.366719 -32679.482778   -282.873582
PC11  -3546.179010 -27488.174534   3512.373655   -380.749078
PC12   8552.948247 -18664.794817  18938.516898    379.677856
PC13 -10723.600944  37825.927267  14980.826098    449.683116
PC14  -4834.680441 -17110.077726 -21487.682949    437.645909
PC16  -4212.519698  32228.653210  27037.994429   -637.108660
PC19  14848.266785  16583.895163  16849.757693    420.415101
PC20  -5086.301279  15123.081975  22918.912791   -869.798669
PC21  22705.080515  -4548.265540 -15529.810489   -432.372845
PC22  26557.675051   8470.963287    814.307269   -800.962531
PC23 -19247.031454  -1719.328006  20139.557502   -869.817495
PC24  13381.250299 -22245.852817  10255.367701   -814.045788
PC25  -4993.253774 -16687.072572  21802.466587   -625.787255
PC26  22381.564825 -15443.301901  -6344.281283    690.048897
PC27 -13784.671865   9427.417563 -22378.704713    334.446172
PC28 -16265.521354 -11666.573329 -19445.786892   -227.434454
PC29  10205.820267  25456.063733   5163.154680    232.022449
PC30  -2532.642648  24869.462891 -12432.151871    320.737388
PC32 -22677.680531   4765.391370  15579.983151   -888.806689
PC33 -14929.368010 -16521.561986 -16819.833715   -830.578596
PC34   2313.047537 -25058.553721  12024.054014   -742.056224
PC35  16687.922564  11308.116542  19309.027041   -832.690347
PC36   4372.394602  16931.271029 -21725.405326   -833.345604
PC37 -22838.868992  14438.169917   6978.839486   -844.035870
PC44      0.000000      0.000000      0.000000 999999.999999
PC45  19168.390283   1587.833631 -20218.048988    137.805138
PE01  27032.321093 -11448.372616   3781.152705   -861.875018
PE02 -26992.688806  11503.097829  -3876.450844    135.123826
PE03 -18571.827373   4854.803300  22542.960468   -301.497658
PE04   1640.247676 -19614.495443 -22095.935288   -530.569118
PE05 -24786.284137 -12914.998005   9763.486770   -378.066851
PE07  16467.714097  23023.590685   8647.537412   -385.328499
PE08  -1243.527476  19628.645173  22125.756727   6174.627357
PE09 -16755.457460 -22857.151103  -8561.955841   6052.992498
PE11  -5366.032769 -24714.454657 -15370.298533   2988.732109
PE12   7898.087189 -28322.039158   3301.565195   5792.750249
PE13   5249.058560  24860.928773  15196.808389    401.032272
PE14 -22450.440048   -601.293831 -23500.040815  -1022.898032
PE15  -7644.446352  28432.432414  -3099.893439    866.168860
PE18  16728.108158   2965.636770  16210.663122  -1122.381910
PE19  19780.169543  -2851.587989 -21823.753509  -2489.010463
PE21  25855.011228   1563.874037 -14328.247994   -600.348583
PE24  -9230.107618 -14127.773833  24302.764521   5442.334391
PE25 -25796.768867  -1652.125787  14427.105311   -510.988547
PE26  15316.692389   6355.801313  24521.234368   3160.068521
PE27   9550.760680  13928.234228 -24309.513630    214.596776
PE30 -12702.272317  18012.004127 -19765.458349   3886.855755
PE31  12283.312003 -18061.584194  19978.315230   -472.627854
PE33  16063.447124 -15288.666035  19603.269944   -466.996821
PE36 -15070.421670  -6680.586077 -24581.330075    556.843551
PG01  14768.432282 -21269.200482   4808.093350   -383.767479
PG02 -16558.961474   3279.612400 -19856.935339   -460.052319
PG03  16293.113513 -12474.463122 -16862.136590   -184.043465
PG04   5533.956773 -17229.148774 -19418.540741    -92.706669
PG05 -26616.223678   1529.445604   -858.445528    -13.167883
PG06 -11773.333705  -9216.432004 -21893.923620   -276.067399
PG07   2783.195496 -23444.167887  11966.717422   -287.001912
PG08  13748.276886  -6382.474577  21837.363960    -34.892499
PG09  -4918.211524 -23074.371846 -12231.765301   -222.195992
PG10  15272.976287  11932.103883  18352.335879   -348.751723
PG11  12687.777655 -16429.873864  16245.762725   -270.097709
PG12 -17582.110405  10930.608229 -16783.975885    114.945821
PG13 -16769.201507  -2623.973521  20335.383828     12.058152
PG14  17604.885791  16400.400244 -11104.012014    -11.222683
PG15 -13357.568758   8517.215595  21020.487167   -229.463215
PG16  26772.074300    328.823451   1102.175125   -161.261771
PG17 -14432.923504 -22133.576320  -2502.619218    268.816544
PG18  -3966.362173  23680.741744  11326.598724    197.686369
PG19 -17035.725678 -17355.235109 -11005.186571   -155.364896
PG20   3309.272554  15413.679707  21298.594548    527.650179
PG21   1584.356082  22684.586929  14734.481783      1.929931
PG22      0.000000      0.000000      0.000000 999999.999999
PG23  -7385.525324 -23278.277612  -9597.066005   -112.106508
PG24 -14601.047638  20816.745171   6792.334388    -13.348556
PG25  -7245.818539  14865.228166 -20965.291934      6.192345
PG26  23887.035395   5590.871761 -10488.888429    211.243096
PG27  18283.478902   5323.872857  18516.087646   -300.558146
PG28 -15305.137751 -12831.500323  18017.931090    715.238809
PG29    732.122791  21932.995210 -14986.479231   -110.328142
PG30  -5959.213511 -17670.751768  18873.062929   -225.637155
PG31  13217.411751   7690.282636 -21748.571489    -44.109098
PG32  16450.971305  20648.462374  -3486.506354    285.579958
PJ01 -28146.829088  21845.139044  27637.512113   -299.899023
PJ02 -35533.037611  21331.896062  -3407.538904     -0.174123
PJ03 -19648.133274  25097.385058 -23025.493804     -3.247160
PJ07 -25401.734150  33656.427192     31.047149      0.014519
PR01 -11231.491981   6326.430115  22021.884031     61.915589
PR02   9865.932378  14920.285123  18256.074365    427.922699
PR03  21784.953136  12955.276666   3129.900896     15.456955
PR04  21184.732516   3705.735584 -13684.421622     50.041131
PR05   8648.003386  -7560.746822 -22760.017899     50.917620
PR07 -21971.894517 -12685.619333  -2396.622205    -36.792631
PR08 -21193.947110  -3592.520751  13781.928403    -52.373351
PR09  -1146.870358 -12283.791657  22329.007709    133.958537
PR11 -22180.808074   9578.861162   8271.787770    -24.466319
PR12 -17748.694087  16216.269582  -8473.474864    132.867741
PR13  -2823.669344  13918.269324 -21207.948683    -39.010868
PR14  13658.939725   3346.138799 -21267.672472     51.493948
PR15  22064.222916  -9000.641924  -9081.352513    106.502885
PR16  17125.617590 -16731.443224   8947.423176     -3.692903
PR17   8756.652668  16099.501876  17731.490042    326.892635
PR18  10414.057067  -1554.463942  23242.017079     36.231542
PR19   7129.580769 -17992.842771  16611.470419    -94.501170
PR20  -1113.515880 -25399.690261  -1724.588851   -412.343156
PR21  -8898.165937 -15335.591588 -18351.926705   -126.226968
PR22 -10138.388366   4539.957526 -22972.707853     -2.459302
PR23  -4189.287764  22602.202369 -11075.463925    307.170199
PR24   1669.436489  25331.169482   2470.849397     -0.464036
PR26    496.133862 -25327.580248   3102.220644   -394.812997
EOF
